
# Worst residual: 14.36 km
# MJD 58676.000000 (2019 Jul 12  0:00)
S510923
1 08753U 76023H   19193.49918769  .00000000  00000-0  00000-0 0  3609
2 08753 033.7021 338.5568 0420584 019.7951 151.5311 00.18708360    04

# Worst residual: 15.17 km
# MJD 58677.000000 (2019 Jul 13  0:00)
S510923
1 08753U 76023H   19194.49918769  .00000000  00000-0  00000-0 0  3600
2 08753 033.6960 338.5406 0414031 017.2013 221.6358 00.18688234    05

# Worst residual: 7.73 km
# MJD 58678.000000 (2019 Jul 14  0:00)
S510923
1 08753U 76023H   19195.49918769  .00000000  00000-0  00000-0 0  3601
2 08753 033.6883 338.4919 0405724 015.1761 290.8346 00.18643542    01

# Worst residual: 17.45 km
# MJD 58679.000000 (2019 Jul 15  0:00)
S510923
1 08753U 76023H   19196.49918769  .00000000  00000-0  00000-0 0  3602
2 08753 033.6883 338.4687 0395075 018.3588 354.9873 00.18707531    08

# Worst residual: 13.03 km
# MJD 58680.000000 (2019 Jul 16  0:00)
S510923
1 08753U 76023H   19197.49918769  .00000000  00000-0  00000-0 0  3603
2 08753 033.6834 338.4587 0393846 021.3388 059.5074 00.18688439    05

# Worst residual: 5.09 km
# MJD 58681.000000 (2019 Jul 17  0:00)
S510923
1 08753U 76023H   19198.49918769  .00000000  00000-0  00000-0 0  3604
2 08753 033.6766 338.4478 0389479 022.9102 125.1833 00.18658625    03

# Worst residual: 13.61 km
# MJD 58682.000000 (2019 Jul 18  0:00)
S510923
1 08753U 76023H   19199.49918769  .00000000  00000-0  00000-0 0  3605
2 08753 033.6726 338.4328 0397766 020.9873 194.4396 00.18692961    08

# Worst residual: 12.69 km
# MJD 58683.000000 (2019 Jul 19  0:00)
S510923
1 08753U 76023H   19200.49918769  .00000000  00000-0  00000-0 0  3608
2 08753 033.6681 338.4227 0412928 018.7491 264.2002 00.18688141    00

# Worst residual: 5.33 km
# MJD 58684.000000 (2019 Jul 20  0:00)
S510923
1 08753U 76023H   19201.49918769  .00000000  00000-0  00000-0 0  3609
2 08753 033.6560 338.4201 0429099 017.1379 333.0740 00.18637389    05

# Worst residual: 13.40 km
# MJD 58685.000000 (2019 Jul 21  0:00)
S510923
1 08753U 76023H   19202.49918769  .00000000  00000-0  00000-0 0  3600
2 08753 033.6416 338.4029 0409303 018.1573 039.3407 00.18692194    07

# Worst residual: 10.19 km
# MJD 58686.000000 (2019 Jul 22  0:00)
S510923
1 08753U 76023H   19203.49918769  .00000000  00000-0  00000-0 0  3601
2 08753 033.6350 338.3981 0392184 019.2937 105.6745 00.18689738    06

# Worst residual: 6.43 km
# MJD 58687.000000 (2019 Jul 23  0:00)
S510923
1 08753U 76023H   19204.49918769  .00000000  00000-0  00000-0 0  3602
2 08753 033.6303 338.3848 0384647 019.0927 173.1871 00.18678297    06

# Worst residual: 6.70 km
# MJD 58688.000000 (2019 Jul 24  0:00)
S510923
1 08753U 76023H   19205.49918769  .00000000  00000-0  00000-0 0  3603
2 08753 033.6295 338.3798 0390415 018.2251 241.3741 00.18685398    05

# Worst residual: 7.91 km
# MJD 58689.000000 (2019 Jul 25  0:00)
S510923
1 08753U 76023H   19206.49918769  .00000000  00000-0  00000-0 0  3604
2 08753 033.6236 338.3691 0399945 018.7735 308.1925 00.18694367    03

# Worst residual: 12.31 km
# MJD 58690.000000 (2019 Jul 26  0:00)
S510923
1 08753U 76023H   19207.49918769  .00000000  00000-0  00000-0 0  3605
2 08753 033.6176 338.3529 0408589 020.6819 013.7163 00.18685984    04

# Worst residual: 6.56 km
# MJD 58691.000000 (2019 Jul 27  0:00)
S510923
1 08753U 76023H   19208.49918769  .00000000  00000-0  00000-0 0  3606
2 08753 033.6039 338.3008 0414472 021.8515 079.7969 00.18660377    03

# Worst residual: 13.79 km
# MJD 58692.000000 (2019 Jul 28  0:00)
S510923
1 08753U 76023H   19209.49918769  .00000000  00000-0  00000-0 0  3607
2 08753 033.6032 338.2715 0412548 019.3818 149.6250 00.18705085    06

# Worst residual: 14.56 km
# MJD 58693.000000 (2019 Jul 29  0:00)
S510923
1 08753U 76023H   19210.49918769  .00000000  00000-0  00000-0 0  3609
2 08753 033.5961 338.2576 0410650 016.9997 219.5181 00.18699843    08

# Worst residual: 4.11 km
# MJD 58694.000000 (2019 Jul 30  0:00)
S510923
1 08753U 76023H   19211.49918769  .00000000  00000-0  00000-0 0  3600
2 08753 033.5897 338.2486 0412585 014.6325 289.1944 00.18656790    09

# Worst residual: 9.47 km
# MJD 58695.000000 (2019 Jul 31  0:00)
S510923
1 08753U 76023H   19212.49918769  .00000000  00000-0  00000-0 0  3601
2 08753 033.5830 338.2355 0405292 015.7192 355.3223 00.18688293    01

# Worst residual: 10.58 km
# MJD 58696.000000 (2019 Aug  1  0:00)
S510923
1 08753U 76023H   19213.49918769  .00000000  00000-0  00000-0 0  3602
2 08753 033.5781 338.2241 0384823 016.9584 061.6098 00.18731247    09

# Worst residual: 17.60 km
# MJD 58697.000000 (2019 Aug  2  0:00)
S510923
1 08753U 76023H   19214.49918769  .00000000  00000-0  00000-0 0  3603
2 08753 033.5659 338.2263 0376993 021.4496 124.4328 00.18650183    02

# Worst residual: 12.08 km
# MJD 58698.000000 (2019 Aug  3  0:00)
S510923
1 08753U 76023H   19215.49918769  .00000000  00000-0  00000-0 0  3604
2 08753 033.5220 338.2150 0394049 023.4283 189.4031 00.18673216    03

# Worst residual: 10.24 km
# MJD 58699.000000 (2019 Aug  4  0:00)
S510923
1 08753U 76023H   19216.49918769  .00000000  00000-0  00000-0 0  3605
2 08753 033.5084 338.1871 0418418 023.4546 256.8555 00.18721404    02

# Worst residual: 6.14 km
# MJD 58700.000000 (2019 Aug  5  0:00)
S510923
1 08753U 76023H   19217.49918769  .00000000  00000-0  00000-0 0  3606
2 08753 033.5014 338.1757 0431704 021.9925 325.7199 00.18679381    01

# Worst residual: 5.47 km
# MJD 58701.000000 (2019 Aug  6  0:00)
S510923
1 08753U 76023H   19218.49918769  .00000000  00000-0  00000-0 0  3607
2 08753 033.5011 338.1665 0432452 022.4308 032.5331 00.18677560    06

# Worst residual: 5.78 km
# MJD 58702.000000 (2019 Aug  7  0:00)
S510923
1 08753U 76023H   19219.49918769  .00000000  00000-0  00000-0 0  3608
2 08753 033.4959 338.1606 0423801 022.1588 100.1280 00.18694636    04

# Worst residual: 11.51 km
# MJD 58703.000000 (2019 Aug  8  0:00)
S510923
1 08753U 76023H   19220.49918769  .00000000  00000-0  00000-0 0  3600
2 08753 033.4926 338.1446 0419656 020.7524 168.9602 00.18708553    01

# Worst residual: 9.05 km
# MJD 58704.000000 (2019 Aug  9  0:00)
S510923
1 08753U 76023H   19221.49918769  .00000000  00000-0  00000-0 0  3601
2 08753 033.4793 338.1161 0408734 018.5325 238.5731 00.18667028    04

# Worst residual: 10.70 km
# MJD 58705.000000 (2019 Aug 10  0:00)
S510923
1 08753U 76023H   19222.49918769  .00000000  00000-0  00000-0 0  3602
2 08753 033.4765 338.0621 0405796 018.6977 305.5919 00.18667705    07

# Worst residual: 14.71 km
# MJD 58706.000000 (2019 Aug 11  0:00)
S510923
1 08753U 76023H   19223.49918769  .00000000  00000-0  00000-0 0  3603
2 08753 033.4734 338.0458 0401208 021.3399 010.3626 00.18703658    08

# Worst residual: 8.47 km
# MJD 58707.000000 (2019 Aug 12  0:00)
S510923
1 08753U 76023H   19224.49918769  .00000000  00000-0  00000-0 0  3604
2 08753 033.4677 338.0375 0398761 023.9142 075.2159 00.18677866    07
